STARLINK-4034           
1 52700U 22053AW  24078.46421245 -.00002835  00000+0 -16007-3 0  9991
2 52700  53.2152 146.4707 0001588 109.3691 250.7473 15.08841834101804
STARLINK-4003           
1 52701U 22053AX  24078.13261343  .00000403  00000+0  43418-4 0  9991
2 52701  53.2168 133.3185 0001606  85.7020 274.4156 15.08833852101959
STARLINK-4033           
1 52702U 22053AY  24078.49371883  .00001077  00000+0  85753-4 0  9998
2 52702  53.2167 146.7196 0001334  85.9578 274.1567 15.08831420101803
STARLINK-4020           
1 52703U 22053AZ  24078.45277264  .00002353  00000+0  16591-3 0  9994
2 52703  53.2157 131.8883 0001428  92.6322 267.4833 15.08834237102000
STARLINK-3999           
1 52704U 22053BA  24077.47389008  .00001652  00000+0  12185-3 0  9992
2 52704  53.2167 136.2730 0001391  88.8852 271.2299 15.08839152102286
STARLINK-3844           
1 52705U 22053BB  24078.45645489 -.00000104  00000+0  11543-4 0  9990
2 52705  53.2168 131.8616 0001412  88.1707 271.9447 15.08833938102006
STARLINK-3970           
1 52706U 22053BC  24078.46012903  .00002210  00000+0  15687-3 0  9992
2 52706  53.2170 131.8463 0001315  95.8334 264.2808 15.08839395102002
STARLINK-4007           
1 52707U 22053BD  24078.43802932  .00001089  00000+0  86495-4 0  9998
2 52707  53.2172 131.8304 0001557 103.7653 256.3513 15.08840412102018
STARLINK-3962           
1 52708U 22053BE  24078.41596594  .00001077  00000+0  85749-4 0  9999
2 52708  53.2181 132.0328 0001683  99.4888 260.6295 15.08842519102003
STARLINK-4091           
1 52830U 22062A   24078.16391910  .00013064  00000+0  83858-3 0  9999
2 52830  53.2195  33.3656 0001747 100.9322 259.1866 15.08786323 97362
STARLINK-4089           
1 52831U 22062B   24077.29540299 -.00000545  00000+0 -16155-4 0  9998
2 52831  53.2190  37.0667 0001777 123.7094 236.4068 15.08844103 96725
STARLINK-4083           
1 52832U 22062C   24077.29172510  .00002084  00000+0  14896-3 0  9993
2 52832  53.2173  37.0872 0001404  96.6505 263.4647 15.08843975 96726
STARLINK-4086           
1 52833U 22062D   24077.28804332  .00000860  00000+0  72091-4 0  9999
2 52833  53.2182  37.1058 0001410 100.2525 259.8627 15.08842606 96722
STARLINK-4108           
1 52834U 22062E   24077.28068872  .00000861  00000+0  72174-4 0  9994
2 52834  53.2191  37.1334 0001833  72.0857 288.0335 15.08842835 96727
STARLINK-4080           
1 52835U 22062F   24078.27060556  .00000760  00000+0  65842-4 0  9998
2 52835  53.2189  32.6957 0001901 100.2112 259.9094 15.08861136 96870
STARLINK-4043           
1 52836U 22062G   24077.86948653  .00001775  00000+0  12957-3 0  9991
2 52836  53.2186  34.4984 0001267  91.5217 268.5920 15.08845711 96810
STARLINK-4036           
1 52837U 22062H   24078.25955855  .00002154  00000+0  15334-3 0  9992
2 52837  53.2195  32.7432 0001429  93.3329 266.7826 15.08849881 96877
STARLINK-4092           
1 52838U 22062J   24078.26324875  .00006937  00000+0  45327-3 0  9994
2 52838  53.2179  32.7203 0001408  77.9766 282.1384 15.08860412 97365
STARLINK-4048           
1 52839U 22062K   24078.25220288  .00002315  00000+0  16345-3 0  9991
2 52839  53.2191  32.7737 0001517  91.1191 268.9975 15.08851727 97360
STARLINK-4049           
1 52840U 22062L   24078.19060188  .00001846  00000+0  13403-3 0  9997
2 52840  53.2202  33.0615 0001534  99.4139 260.7026 15.08846601 97357
STARLINK-4065           
1 52841U 22062M   24078.10869352  .00000869  00000+0  72677-4 0  9992
2 52841  53.2193  33.4202 0001581  96.3311 263.7861 15.08836748 97343
STARLINK-4046           
1 52842U 22062N   24078.18963921  .00001733  00000+0  12696-3 0  9993
2 52842  53.2187  32.9803 0001541 102.4259 257.6906 15.08842210 97358
STARLINK-4188           
1 52843U 22062P   24078.16756809 -.00000053  00000+0  14752-4 0  9998
2 52843  53.2196  33.1549 0001861 105.9211 254.1987 15.08840382 97359
STARLINK-4208           
1 52844U 22062Q   24077.25492267  .00002038  00000+0  14607-3 0  9995
2 52844  53.2182  37.2533 0001355 109.7594 250.3544 15.08841854 96729
STARLINK-4168           
1 52845U 22062R   24078.10501066  .00000652  00000+0  59040-4 0  9990
2 52845  53.2181  33.5018 0001170  83.2993 276.8132 15.08845705 97344
STARLINK-4212           
1 52846U 22062S   24078.23843632  .00001279  00000+0  98391-4 0  9991
2 52846  53.2191  32.8471 0001509 105.1069 255.0090 15.08849306 97360
STARLINK-4206           
1 52847U 22062T   24077.29908486  .00001036  00000+0  83149-4 0  9992
2 52847  53.2186  37.0556 0001491 111.5812 248.5340 15.08838821 97223
STARLINK-4202           
1 52848U 22062U   24078.17860991  .00000700  00000+0  62086-4 0  9993
2 52848  53.2191  33.1122 0001334  91.9538 268.1607 15.08838643 97358
STARLINK-4197           
1 52849U 22062V   24078.21999980  .00002059  00000+0  14740-3 0  9992
2 52849  53.2199  22.9247 0001398 106.9341 253.1805 15.08849312 97494
STARLINK-4187           
1 52850U 22062W   24077.27064910  .00001287  00000+0  98961-4 0  9995
2 52850  53.2181  37.5389 0001292  97.5503 262.5636 15.08837600 96722
STARLINK-3809           
1 52851U 22062X   24078.21632246 -.00000134  00000+0  96895-5 0  9990
2 52851  53.2189  22.9468 0001553 109.5361 250.5799 15.08847484 97496
STARLINK-4184           
1 52852U 22062Y   24077.82624848  .00001025  00000+0  82468-4 0  9995
2 52852  53.2190  24.6884 0001284 105.3701 254.7433 15.08838839 96947
STARLINK-4189           
1 52853U 22062Z   24078.13999127  .00000927  00000+0  76308-4 0  9992
2 52853  53.2192  23.2466 0001621 113.5983 246.5179 15.08851941 97484
STARLINK-4204           
1 52854U 22062AA  24078.21263634 -.00004274  00000+0 -25040-3 0  9996
2 52854  53.2193  22.9560 0001843 111.0600 249.0589 15.08862810 97493
STARLINK-4209           
1 52855U 22062AB  24078.13537119 -.00000138  00000+0  94125-5 0  9996
2 52855  53.2191  23.2977 0001427 107.0617 253.0532 15.08836371 97484
STARLINK-4201           
1 52856U 22062AC  24078.20992679  .00015747  00000+0  10048-2 0  9991
2 52856  53.2187  23.0192 0001450  71.7279 288.3871 15.08855982 97491
STARLINK-4199           
1 52857U 22062AD  24078.26047935  .00001444  00000+0  10876-3 0  9993
2 52857  53.2185  22.7388 0001631 106.8830 253.2341 15.08847756 97502
STARLINK-4198           
1 52858U 22062AE  24078.13904343  .00000429  00000+0  45043-4 0  9992
2 52858  53.2178  23.3105 0001470 101.2149 258.9008 15.08849458 97482
STARLINK-4196           
1 52859U 22062AF  24078.12432894  .00000084  00000+0  23354-4 0  9997
2 52859  53.2188  23.3474 0001412 110.5753 249.5391 15.08838772 97481
STARLINK-4191           
1 52860U 22062AG  24078.13168318  .00000918  00000+0  75744-4 0  9993
2 52860  53.2189  23.3176 0001424  91.4416 268.6739 15.08846441 97489
STARLINK-4112           
1 52861U 22062AH  24077.24576383  .00002603  00000+0  18153-3 0  9993
2 52861  53.2186  27.3006 0001400  89.5096 270.6057 15.08846702 96866
STARLINK-4010           
1 52862U 22062AJ  24078.12065172  .00004440  00000+0  29677-3 0  9995
2 52862  53.2176  23.3753 0001213 100.2093 259.9036 15.08850248 97487
STARLINK-4270           
1 52863U 22062AK  24078.11328934  .00000372  00000+0  41437-4 0  9992
2 52863  53.2204  23.4032 0001422  86.2834 273.8321 15.08840959 97489
STARLINK-4267           
1 52864U 22062AL  24077.25583619  .00002819  00000+0  19508-3 0  9991
2 52864  53.2186  27.2498 0001430 124.2266 235.8862 15.08855007 96867
STARLINK-4274           
1 52865U 22062AM  24078.16848257  .00001342  00000+0  10237-3 0  9995
2 52865  53.2204  23.1491 0001811  79.3290 280.7906 15.08849999 97498
STARLINK-4272           
1 52866U 22062AN  24078.10960531  .00002505  00000+0  17538-3 0  9993
2 52866  53.2184  23.4208 0001512  90.1307 269.9859 15.08846141 97484
STARLINK-4126           
1 52867U 22062AP  24078.16113134  .00000789  00000+0  67645-4 0  9996
2 52867  53.2195  23.1861 0001407  87.2197 272.8956 15.08839011 97496
STARLINK-4261           
1 52868U 22062AQ  24077.24481432  .00002153  00000+0  15333-3 0  9997
2 52868  53.2197  27.3278 0001679  87.5768 272.5417 15.08841039 96867
STARLINK-4266           
1 52869U 22062AR  24077.22732539  .00001582  00000+0  11744-3 0  9990
2 52869  53.2181  17.3766 0001283 107.2591 252.8542 15.08841966 96990
STARLINK-4195           
1 52870U 22062AS  24077.30368553  .00000791  00000+0  67755-4 0  9997
2 52870  53.2191  27.0313 0001428  91.4625 268.6530 15.08844388 96872
STARLINK-4207           
1 52871U 22062AT  24078.20988496  .00003709  00000+0  25093-3 0  9992
2 52871  53.2179  12.9651 0001433  93.2661 266.8495 15.08849571 97637
STARLINK-4213           
1 52872U 22062AU  24078.08203735  .00001968  00000+0  14171-3 0  9995
2 52872  53.2184  13.5082 0001524  85.9478 274.1688 15.08845682 97617
STARLINK-4211           
1 52873U 22062AV  24078.20253047  .00000729  00000+0  63913-4 0  9994
2 52873  53.2193  12.9983 0001352  93.4213 266.6933 15.08840882 97639
STARLINK-4210           
1 52874U 22062AW  24077.81612748  .00002037  00000+0  14605-3 0  9995
2 52874  53.2182  14.7362 0001412  86.1296 273.9858 15.08842860 97080
STARLINK-4193           
1 52875U 22062AX  24077.20524975  .00002962  00000+0  20414-3 0  9995
2 52875  53.2182  17.4821 0001422 106.5830 253.5318 15.08840508 96994
STARLINK-4200           
1 52876U 22062AY  24078.20621019  .00000705  00000+0  62409-4 0  9998
2 52876  53.2190  12.9829 0001349  90.8245 269.2902 15.08840927 97635
STARLINK-4214           
1 52877U 22062AZ  24078.04060017 -.00001228  00000+0 -59044-4 0  9990
2 52877  53.2201  13.7237 0001539 122.1240 237.9902 15.08839640 97616
STARLINK-4171           
1 52878U 22062BA  24078.32765300 -.00007074  00000+0 -42642-3 0  9999
2 52878  53.2187  12.4409 0001328 104.2560 255.8579 15.08872030 97652
STARLINK-4139           
1 52879U 22062BB  24078.02955884  .00000492  00000+0  48991-4 0  9994
2 52879  53.2192  13.7761 0001510 103.5978 256.5182 15.08850450 97618
